{"type":"FeatureCollection","features":[{"type":"Feature","properties":{},"geometry":{"type":"Polygon","coordinates":[[[87,5],[123.1,5],[123.1,38.5],[87,38.5],[87,5]],[[105.5646,23.1192],[105.5613,23.116],[105.5659,23.1128],[105.5634,23.1087],[105.5636,23.0941],[105.56,23.088],[105.5656,23.084],[105.5677,23.0772],[105.5739,23.0715],[105.5822,23.0679],[105.5904,23.0711],[105.5947,23.0756],[105.606,23.0763],[105.6095,23.0717],[105.6176,23.0673],[105.6279,23.0714],[105.6308,23.0781],[105.6363,23.0808],[105.6463,23.081],[105.6527,23.0744],[105.6595,23.0747],[105.6669,23.0677],[105.6748,23.0649],[105.6848,23.0626],[105.6993,23.0616],[105.7023,23.0635],[105.7116,23.0625],[105.7088,23.0704],[105.7114,23.0711],[105.7159,23.0649],[105.7213,23.0642],[105.7261,23.0534],[105.73,23.0518],[105.7299,23.0442],[105.7316,23.0386],[105.7369,23.0368],[105.7419,23.0322],[105.7476,23.035],[105.7586,23.0318],[105.7625,23.0285],[105.7682,23.0261],[105.7793,23.0234],[105.7819,23.0208],[105.7873,23.0098],[105.7912,23.0044],[105.7972,23.0009],[105.8074,22.9903],[105.8148,22.9888],[105.8211,22.9973],[105.8283,22.9952],[105.837,22.9877],[105.8387,22.9802],[105.8442,22.9761],[105.8384,22.9732],[105.8418,22.9692],[105.8519,22.9728],[105.8549,22.9702],[105.8511,22.9602],[105.8469,22.9614],[105.846,22.9572],[105.8542,22.9512],[105.8537,22.945],[105.8625,22.9399],[105.8665,22.9392],[105.8725,22.933],[105.8703,22.9283],[105.8712,22.9225],[105.8782,22.9166],[105.8798,22.9185],[105.8874,22.9202],[105.8835,22.9253],[105.8874,22.9316],[105.8881,22.9365],[105.8925,22.9394],[105.9025,22.9412],[105.9091,22.9397],[105.9221,22.9469],[105.9282,22.9448],[105.9313,22.941],[105.939,22.9386],[105.9537,22.9393],[105.9582,22.9497],[105.9621,22.9507],[105.97,22.9483],[105.9727,22.949],[105.9818,22.9435],[105.991,22.9396],[105.9951,22.9424],[105.9986,22.9417],[106.0048,22.9535],[106.0063,22.9649],[106.0084,22.969],[106.0062,22.9723],[106.0079,22.9764],[106.0052,22.9792],[106.0023,22.9864],[106.0017,22.9913],[106.0126,22.9932],[106.0182,22.9905],[106.0226,22.9926],[106.0336,22.9931],[106.036,22.9951],[106.0398,22.9913],[106.0479,22.9931],[106.0543,22.9963],[106.0569,22.991],[106.0602,22.9927],[106.0688,22.9937],[106.0755,22.9985],[106.0858,22.9998],[106.0894,22.9956],[106.0955,22.9959],[106.1001,22.9868],[106.1051,22.9872],[106.1086,22.9902],[106.1162,22.9856],[106.1186,22.9874],[106.1309,22.9899],[106.1317,22.9938],[106.136,22.9959],[106.143,22.9956],[106.1549,22.9916],[106.1564,22.9883],[106.1633,22.9875],[106.1654,22.9845],[106.1829,22.9857],[106.1849,22.9892],[106.1898,22.9882],[106.1918,22.9855],[106.1981,22.9849],[106.2044,22.9827],[106.2118,22.971],[106.2174,22.9703],[106.2197,22.9645],[106.2242,22.9649],[106.2238,22.9588],[106.229,22.958],[106.2358,22.9546],[106.2375,22.9518],[106.2338,22.9442],[106.2421,22.9409],[106.2416,22.9353],[106.2468,22.9352],[106.2485,22.9265],[106.2525,22.9224],[106.2566,22.9222],[106.2599,22.9193],[106.2646,22.9111],[106.2615,22.9054],[106.2622,22.9026],[106.2562,22.8976],[106.2493,22.894],[106.2511,22.8896],[106.2546,22.8887],[106.2618,22.882],[106.2572,22.8794],[106.2636,22.8758],[106.2734,22.8755],[106.2785,22.8696],[106.2816,22.8707],[106.2862,22.8679],[106.2905,22.8699],[106.291,22.8756],[106.3034,22.8744],[106.3066,22.8712],[106.3096,22.8651],[106.3138,22.8692],[106.3208,22.8688],[106.3235,22.8743],[106.3267,22.8748],[106.3326,22.8698],[106.3364,22.8646],[106.3441,22.8598],[106.3463,22.8556],[106.3524,22.8566],[106.359,22.8637],[106.3633,22.8668],[106.3617,22.8717],[106.3634,22.8783],[106.3678,22.8817],[106.3767,22.8843],[106.3802,22.8823],[106.3838,22.8847],[106.3876,22.8825],[106.3909,22.8836],[106.3947,22.8801],[106.4038,22.8809],[106.4055,22.8761],[106.4159,22.8764],[106.4153,22.8808],[106.4117,22.8836],[106.4109,22.8878],[106.4193,22.8924],[106.4271,22.89],[106.4329,22.8823],[106.4377,22.8901],[106.4416,22.8907],[106.4448,22.8949],[106.4467,22.9034],[106.454,22.904],[106.4595,22.8965],[106.4631,22.896],[106.4659,22.9017],[106.4695,22.9007],[106.4726,22.9032],[106.4714,22.9065],[106.4743,22.9102],[106.4785,22.9088],[106.4813,22.904],[106.4861,22.902],[106.4907,22.9066],[106.4949,22.9079],[106.4974,22.9048],[106.5019,22.9101],[106.4994,22.9186],[106.5025,22.9226],[106.5011,22.9304],[106.5044,22.9298],[106.5138,22.947],[106.5265,22.9474],[106.5293,22.9409],[106.5416,22.9427],[106.5407,22.9348],[106.5433,22.9299],[106.5487,22.9286],[106.5515,22.9241],[106.5606,22.9231],[106.5656,22.9189],[106.5715,22.9245],[106.5779,22.9264],[106.58,22.9249],[106.588,22.9325],[106.5933,22.9331],[106.5968,22.9289],[106.6016,22.9294],[106.6049,22.9219],[106.6086,22.9203],[106.6104,22.9091],[106.6184,22.8985],[106.6301,22.8919],[106.63,22.8865],[106.6347,22.8877],[106.6385,22.886],[106.6399,22.8822],[106.6381,22.8757],[106.6449,22.8748],[106.646,22.87],[106.6526,22.8659],[106.658,22.8715],[106.6657,22.8757],[106.6669,22.8816],[106.6661,22.8901],[106.6694,22.8931],[106.6783,22.8906],[106.68,22.8872],[106.692,22.8919],[106.6984,22.8889],[106.7053,22.889],[106.7119,22.8791],[106.7169,22.8787],[106.7165,22.8713],[106.7089,22.8689],[106.7071,22.8646],[106.7107,22.8628],[106.7153,22.8561],[106.7172,22.8576],[106.724,22.8554],[106.7291,22.8513],[106.7366,22.8482],[106.7429,22.8433],[106.7434,22.8395],[106.7515,22.8358],[106.7545,22.8317],[106.7689,22.826],[106.7647,22.8126],[106.7663,22.8112],[106.774,22.8173],[106.78,22.8173],[106.7853,22.8141],[106.7948,22.8154],[106.8001,22.8199],[106.8078,22.8213],[106.8188,22.82],[106.8223,22.8175],[106.8228,22.8131],[106.8267,22.8132],[106.8301,22.8082],[106.8357,22.8061],[106.8359,22.8027],[106.8314,22.8006],[106.832,22.796],[106.8242,22.7883],[106.8221,22.7831],[106.8238,22.7788],[106.8176,22.7714],[106.8098,22.7699],[106.8035,22.7673],[106.7957,22.7698],[106.7942,22.7654],[106.7885,22.7665],[106.7871,22.7642],[106.7906,22.7595],[106.7881,22.7539],[106.7777,22.7503],[106.7743,22.744],[106.7682,22.7446],[106.7647,22.7414],[106.7698,22.7373],[106.7643,22.733],[106.7656,22.7226],[106.765,22.7181],[106.7786,22.7105],[106.7773,22.7068],[106.7701,22.7069],[106.7651,22.7045],[106.7639,22.7004],[106.7586,22.6943],[106.7548,22.6966],[106.7529,22.6923],[106.7605,22.686],[106.7607,22.6816],[106.758,22.6756],[106.7542,22.6723],[106.7412,22.6702],[106.7399,22.6653],[106.7366,22.6606],[106.7358,22.6558],[106.7308,22.6549],[106.7334,22.6498],[106.7258,22.6451],[106.7259,22.642],[106.7222,22.6379],[106.7295,22.6327],[106.7234,22.6171],[106.7147,22.6146],[106.7172,22.6088],[106.7228,22.6074],[106.7304,22.6022],[106.7284,22.5936],[106.7229,22.5918],[106.7234,22.5879],[106.7165,22.5828],[106.7075,22.5783],[106.6968,22.5833],[106.6885,22.5828],[106.685,22.5797],[106.6781,22.5824],[106.6752,22.5786],[106.6718,22.5795],[106.6625,22.5754],[106.6531,22.5754],[106.6487,22.5772],[106.6455,22.5835],[106.6394,22.5856],[106.6374,22.5901],[106.6342,22.5911],[106.6312,22.5991],[106.6325,22.6017],[106.6298,22.6055],[106.6267,22.6042],[106.6101,22.6046],[106.6061,22.5973],[106.6042,22.588],[106.6083,22.5863],[106.6087,22.5808],[106.6009,22.5765],[106.6009,22.5723],[106.6037,22.5643],[106.5998,22.556],[106.6002,22.5525],[106.5918,22.5508],[106.5904,22.5397],[106.5909,22.5362],[106.5869,22.5283],[106.5869,22.5252],[106.5817,22.5198],[106.5822,22.5108],[106.5812,22.4993],[106.5831,22.4952],[106.582,22.4826],[106.5845,22.4774],[106.5834,22.4744],[106.579,22.4732],[106.5776,22.4691],[106.5728,22.4725],[106.5682,22.4733],[106.5634,22.4652],[106.5589,22.4654],[106.5604,22.4565],[106.5591,22.447],[106.563,22.4471],[106.5674,22.4404],[106.5647,22.4377],[106.5656,22.4325],[106.5681,22.4305],[106.5645,22.4237],[106.5607,22.4224],[106.5644,22.4194],[106.5664,22.4137],[106.571,22.407],[106.5714,22.4039],[106.5785,22.3974],[106.5859,22.3946],[106.5859,22.3872],[106.5835,22.3841],[106.5856,22.3784],[106.5796,22.3712],[106.5718,22.3696],[106.5699,22.3638],[106.5644,22.366],[106.5617,22.3615],[106.5624,22.3571],[106.5596,22.3489],[106.5713,22.3424],[106.5718,22.3464],[106.5772,22.3466],[106.578,22.3426],[106.5815,22.34],[106.5893,22.3436],[106.5945,22.3396],[106.6026,22.3378],[106.6136,22.3399],[106.6209,22.3329],[106.6265,22.3359],[106.6333,22.3372],[106.6352,22.34],[106.6396,22.3381],[106.6435,22.3399],[106.6486,22.3397],[106.6588,22.334],[106.6571,22.3283],[106.6591,22.3178],[106.6645,22.3143],[106.6683,22.3075],[106.6656,22.3],[106.6682,22.2967],[106.6661,22.2905],[106.6669,22.2863],[106.6717,22.2838],[106.6769,22.2856],[106.6816,22.2823],[106.6827,22.2793],[106.6894,22.2783],[106.6884,22.2725],[106.6858,22.2712],[106.6826,22.265],[106.6898,22.2594],[106.6928,22.2511],[106.695,22.2401],[106.6958,22.2311],[106.7024,22.2199],[106.698,22.218],[106.6985,22.2125],[106.6954,22.2065],[106.6912,22.2043],[106.6802,22.2033],[106.6805,22.1959],[106.6711,22.1836],[106.676,22.1803],[106.6775,22.1713],[106.6827,22.1697],[106.6852,22.1641],[106.6917,22.1621],[106.7032,22.1627],[106.7058,22.1582],[106.6962,22.1543],[106.6948,22.1432],[106.6892,22.139],[106.689,22.1367],[106.6943,22.1331],[106.6924,22.1194],[106.6959,22.1162],[106.6953,22.1109],[106.6989,22.1065],[106.71,22.1017],[106.713,22.0956],[106.7106,22.0893],[106.7049,22.0853],[106.7065,22.0652],[106.7035,22.0647],[106.7009,22.0585],[106.6972,22.0544],[106.6989,22.049],[106.6969,22.0452],[106.6985,22.0421],[106.7047,22.0393],[106.7056,22.033],[106.7085,22.0286],[106.708,22.0254],[106.7022,22.022],[106.6997,22.0154],[106.6883,22.0096],[106.6888,22.0073],[106.6838,22.0041],[106.6824,22.001],[106.6839,21.992],[106.6834,21.9852],[106.6867,21.9793],[106.6946,21.9731],[106.6943,21.9693],[106.6911,21.9655],[106.6989,21.9601],[106.7022,21.9625],[106.7052,21.9682],[106.7083,21.97],[106.7081,21.9747],[106.7159,21.9719],[106.7203,21.9751],[106.7284,21.9852],[106.7282,21.991],[106.732,21.9976],[106.7373,22.0031],[106.7362,22.0076],[106.7494,22.0084],[106.7587,22.0128],[106.7714,22.0112],[106.7754,22.0089],[106.7785,22.0045],[106.7844,22.004],[106.7875,21.9975],[106.7895,21.9894],[106.7926,21.9929],[106.7979,21.9902],[106.797,21.9849],[106.7999,21.9802],[106.8119,21.9735],[106.8277,21.9759],[106.8324,21.9751],[106.8327,21.9821],[106.8409,21.9836],[106.847,21.9777],[106.8505,21.9819],[106.8578,21.98],[106.867,21.9831],[106.8748,21.9802],[106.8794,21.9821],[106.8918,21.977],[106.8975,21.9757],[106.9037,21.9714],[106.9134,21.976],[106.9185,21.974],[106.9193,21.9697],[106.9235,21.9632],[106.9206,21.9548],[106.9232,21.9472],[106.9273,21.9448],[106.9304,21.9349],[106.9299,21.9309],[106.9337,21.9295],[106.9456,21.9323],[106.9539,21.9305],[106.9534,21.9243],[106.961,21.9194],[106.9649,21.9228],[106.9714,21.9222],[106.9794,21.9265],[106.9848,21.9361],[106.9837,21.9381],[106.9885,21.9429],[106.9879,21.9478],[106.9906,21.9511],[106.9995,21.946],[107.0066,21.9467],[107.0121,21.9449],[107.0151,21.9462],[107.0202,21.944],[107.026,21.9379],[107.0363,21.9353],[107.0391,21.9308],[107.0481,21.9297],[107.0504,21.9249],[107.0538,21.9226],[107.0584,21.9145],[107.0573,21.9102],[107.0601,21.9088],[107.0591,21.9041],[107.0633,21.8962],[107.063,21.8935],[107.0573,21.8897],[107.0556,21.8844],[107.0497,21.8804],[107.0408,21.8791],[107.0358,21.8749],[107.0319,21.8693],[107.0259,21.8652],[107.0179,21.8638],[107.0134,21.8552],[107.0064,21.8495],[107.0045,21.8455],[107.0045,21.8326],[107.0091,21.8272],[107.0176,21.8272],[107.0237,21.8227],[107.0255,21.8192],[107.0299,21.8172],[107.039,21.8155],[107.0434,21.8123],[107.046,21.8136],[107.0585,21.8109],[107.0612,21.8093],[107.0729,21.8089],[107.0775,21.8102],[107.0856,21.8078],[107.0858,21.8048],[107.0902,21.8],[107.097,21.7985],[107.1006,21.7933],[107.1131,21.7924],[107.1211,21.7807],[107.128,21.7744],[107.1344,21.7754],[107.1377,21.7669],[107.141,21.7621],[107.1458,21.7624],[107.1608,21.7566],[107.1615,21.7515],[107.1659,21.7498],[107.1722,21.7519],[107.1748,21.7483],[107.1852,21.747],[107.1906,21.7419],[107.1932,21.7343],[107.1971,21.7333],[107.1998,21.7203],[107.2128,21.7128],[107.2225,21.7063],[107.2335,21.7058],[107.2394,21.7047],[107.2495,21.7049],[107.2517,21.7127],[107.2511,21.7167],[107.2582,21.7244],[107.2631,21.7252],[107.2639,21.7283],[107.2805,21.7338],[107.287,21.7317],[107.2879,21.7364],[107.3012,21.7421],[107.3058,21.7368],[107.3085,21.7301],[107.3132,21.7298],[107.3147,21.725],[107.3227,21.7247],[107.3199,21.7159],[107.3239,21.7099],[107.324,21.7061],[107.3347,21.6988],[107.3362,21.6911],[107.3391,21.6873],[107.3445,21.6855],[107.3492,21.6816],[107.3454,21.6768],[107.3476,21.6742],[107.3576,21.6698],[107.3567,21.6664],[107.3607,21.6639],[107.3586,21.6609],[107.3608,21.6516],[107.3605,21.6462],[107.3641,21.6402],[107.3616,21.6349],[107.3541,21.6305],[107.3555,21.6236],[107.3591,21.6206],[107.3608,21.6127],[107.3575,21.605],[107.3623,21.6001],[107.3653,21.5991],[107.3683,21.6027],[107.3732,21.5991],[107.3827,21.5956],[107.3843,21.5986],[107.3911,21.6034],[107.3935,21.6079],[107.3978,21.6098],[107.3951,21.6167],[107.3988,21.6194],[107.4082,21.623],[107.4089,21.6272],[107.4175,21.6328],[107.4171,21.6395],[107.4272,21.6459],[107.434,21.6511],[107.4389,21.6514],[107.4494,21.6578],[107.4555,21.6591],[107.4668,21.6649],[107.4781,21.6619],[107.4822,21.6569],[107.4809,21.6542],[107.4839,21.6488],[107.4834,21.6452],[107.4851,21.6368],[107.4839,21.631],[107.4884,21.6241],[107.4923,21.6241],[107.4981,21.6148],[107.494,21.6092],[107.4937,21.6047],[107.4906,21.6037],[107.4896,21.5987],[107.4926,21.5966],[107.4998,21.595],[107.5048,21.5977],[107.5162,21.5931],[107.5197,21.5935],[107.5228,21.5906],[107.5307,21.5904],[107.5331,21.5933],[107.538,21.5938],[107.5433,21.5894],[107.5467,21.5937],[107.5481,21.599],[107.5568,21.6093],[107.5568,21.6128],[107.5694,21.6121],[107.5735,21.6166],[107.5826,21.6163],[107.5854,21.6107],[107.5903,21.6065],[107.603,21.6036],[107.6119,21.6082],[107.621,21.6086],[107.6303,21.6074],[107.6516,21.6075],[107.6608,21.6104],[107.6652,21.6141],[107.6692,21.614],[107.6751,21.6107],[107.6868,21.6107],[107.6905,21.6147],[107.6949,21.6165],[107.6991,21.6157],[107.7059,21.6187],[107.7154,21.6213],[107.7213,21.6288],[107.7291,21.63],[107.7348,21.6326],[107.7412,21.639],[107.7553,21.6422],[107.7643,21.6429],[107.7708,21.6449],[107.7735,21.6483],[107.7791,21.6481],[107.7828,21.6554],[107.7885,21.6561],[107.7963,21.6536],[107.8037,21.655],[107.804,21.6578],[107.811,21.6572],[107.8155,21.6584],[107.8212,21.6537],[107.8269,21.6533],[107.8308,21.6498],[107.8339,21.6434],[107.8435,21.6415],[107.8455,21.6491],[107.8522,21.6506],[107.8574,21.6548],[107.8604,21.6496],[107.8675,21.6495],[107.8714,21.6474],[107.8715,21.642],[107.8777,21.6403],[107.8778,21.6321],[107.8881,21.626],[107.8853,21.621],[107.8907,21.6167],[107.8899,21.6141],[107.8834,21.6123],[107.8852,21.6064],[107.8915,21.6066],[107.893,21.602],[107.8902,21.5988],[107.8962,21.5963],[107.8994,21.5926],[107.916,21.5861],[107.922,21.5893],[107.9236,21.5854],[107.9277,21.5815],[107.9294,21.5772],[107.9359,21.5747],[107.9427,21.5698],[107.942,21.5659],[107.9518,21.5398],[107.9554,21.5366],[107.961,21.5378],[107.9679,21.5366],[107.9712,21.5408],[107.9743,21.5395],[107.9799,21.5447],[107.9857,21.5438],[107.9925,21.5465],[108.0062,21.5485],[108.0109,21.5465],[108.022,21.5485],[108.0359,21.5464],[108.0367,21.5404],[108.0446,21.5358],[108.0492,21.5287],[108.046,21.5243],[108.0421,21.5255],[108.0384,21.531],[108.0341,21.5322],[108.0319,21.5287],[108.0379,21.5222],[108.0377,21.5156],[108.0268,21.5139],[108.0271,21.5091],[108.0343,21.5094],[108.0363,21.5028],[108.0327,21.5032],[108.0323,21.4985],[108.0266,21.4957],[108.0272,21.4876],[108.0318,21.4871],[108.0411,21.4925],[108.05,21.4935],[108.0646,21.4941],[108.0677,21.4935],[108.0668,21.4887],[108.0598,21.4849],[108.0382,21.4817],[108.0207,21.476],[108.0098,21.4702],[108.0029,21.4657],[107.9935,21.4572],[107.9825,21.4449],[107.9775,21.436],[107.9694,21.4332],[107.9658,21.4347],[107.9678,21.4404],[107.9672,21.4463],[107.9546,21.4415],[107.9523,21.4365],[107.9519,21.4255],[107.9545,21.422],[107.9565,21.4147],[107.9564,21.4099],[107.9523,21.4052],[107.9529,21.4013],[107.9279,21.3999],[107.9215,21.403],[107.9187,21.4061],[107.9128,21.4176],[107.9067,21.4245],[107.895,21.4302],[107.8934,21.4348],[107.884,21.4379],[107.8851,21.4458],[107.8878,21.4491],[107.8891,21.4554],[107.8937,21.4625],[107.8492,21.4595],[107.8454,21.4497],[107.8418,21.447],[107.837,21.4406],[107.8369,21.4512],[107.8329,21.4507],[107.826,21.4588],[107.8262,21.4694],[107.8172,21.4708],[107.7921,21.4722],[107.7873,21.4693],[107.7832,21.462],[107.7846,21.4598],[107.7797,21.455],[107.775,21.4543],[107.7654,21.4469],[107.7649,21.4419],[107.7617,21.4393],[107.7625,21.4352],[107.759,21.4317],[107.7575,21.4262],[107.7616,21.4248],[107.7567,21.4181],[107.7586,21.417],[107.753,21.4107],[107.7552,21.4047],[107.7384,21.399],[107.7189,21.3943],[107.715,21.3894],[107.7095,21.3869],[107.7038,21.3888],[107.6959,21.3893],[107.6872,21.3823],[107.6756,21.3807],[107.6738,21.3769],[107.6691,21.3745],[107.6682,21.3692],[107.6609,21.3674],[107.6548,21.3708],[107.6478,21.366],[107.6504,21.3541],[107.6477,21.3532],[107.6478,21.3477],[107.6424,21.3398],[107.6346,21.334],[107.6289,21.3263],[107.6295,21.3236],[107.6233,21.3177],[107.6213,21.3117],[107.615,21.3102],[107.6183,21.3055],[107.6094,21.2969],[107.6055,21.2911],[107.5992,21.2897],[107.5931,21.2918],[107.5878,21.2905],[107.5856,21.2874],[107.5806,21.2882],[107.5762,21.292],[107.5701,21.2915],[107.5693,21.2863],[107.565,21.287],[107.5591,21.2929],[107.55,21.2934],[107.5473,21.2902],[107.5363,21.29],[107.5196,21.2923],[107.5125,21.2946],[107.5005,21.2923],[107.5005,21.2457],[107.5042,21.2411],[107.5187,21.2305],[107.5182,21.2266],[107.5231,21.2268],[107.527,21.2231],[107.526,21.2199],[107.5298,21.2162],[107.5327,21.2107],[107.5341,21.2014],[107.5309,21.1989],[107.5378,21.1965],[107.5388,21.1935],[107.5432,21.1931],[107.543,21.1975],[107.5482,21.1975],[107.5568,21.1994],[107.5639,21.2034],[107.5689,21.203],[107.5811,21.2066],[107.5939,21.2143],[107.5963,21.2189],[107.6068,21.2193],[107.6116,21.2182],[107.6058,21.2037],[107.599,21.2016],[107.5985,21.199],[107.5934,21.1909],[107.5931,21.188],[107.5873,21.1851],[107.5848,21.1796],[107.5815,21.1765],[107.5739,21.1754],[107.5736,21.1708],[107.5684,21.1664],[107.5649,21.1612],[107.5411,21.1432],[107.5354,21.1398],[107.5316,21.1356],[107.5231,21.1309],[107.5183,21.1299],[107.5116,21.1239],[107.5064,21.1216],[107.4862,21.1083],[107.4857,21.1061],[107.4788,21.1031],[107.4729,21.0951],[107.4688,21.0868],[107.4648,21.0865],[107.4585,21.0825],[107.4532,21.0872],[107.4409,21.0747],[107.4349,21.073],[107.4332,21.0685],[107.4297,21.0697],[107.4253,21.0667],[107.4287,21.0595],[107.4229,21.0606],[107.4177,21.0575],[107.4124,21.0515],[107.4053,21.049],[107.3956,21.0482],[107.3834,21.0409],[107.3658,21.0171],[107.3686,21.0148],[107.3638,21.0086],[107.3614,21.0083],[107.3566,21.0013],[107.3416,20.994],[107.3308,20.9914],[107.328,20.9864],[107.3236,20.987],[107.3133,20.991],[107.308,20.9943],[107.3029,20.9907],[107.2941,20.9915],[107.2907,20.9961],[107.2837,20.9965],[107.2813,20.9986],[107.2755,20.9981],[107.2716,21.0009],[107.2658,21.0005],[107.2662,20.9967],[107.2498,20.9978],[107.247,20.9934],[107.241,20.993],[107.239,20.9876],[107.2304,20.9801],[107.2283,20.9758],[107.2139,20.9722],[107.2128,20.9673],[107.199,20.9619],[107.2009,20.9549],[107.1969,20.9509],[107.2021,20.9465],[107.2033,20.9405],[107.1993,20.9347],[107.1918,20.9353],[107.1747,20.9341],[107.1641,20.9319],[107.1639,20.9292],[107.1593,20.9274],[107.1532,20.932],[107.1486,20.933],[107.1497,20.9346],[107.1512,20.9381],[107.1457,20.9419],[107.1402,20.9426],[107.1389,20.9389],[107.1319,20.9395],[107.1282,20.9365],[107.1158,20.9375],[107.1061,20.9417],[107.0997,20.9481],[107.0854,20.9496],[107.0803,20.9453],[107.0762,20.9454],[107.0677,20.9551],[107.0591,20.9577],[107.0322,20.9464],[107.0193,20.948],[107.0189,20.9511],[107.0094,20.9521],[107.0033,20.9543],[106.9977,20.9526],[106.9899,20.9533],[106.9876,20.9567],[106.9787,20.9544],[106.9722,20.9516],[106.9619,20.9508],[106.959,20.9438],[106.954,20.9422],[106.9511,20.9386],[106.9411,20.9339],[106.9396,20.9162],[106.9468,20.9137],[106.946,20.9077],[106.9388,20.9091],[106.9301,20.9078],[106.9197,20.9105],[106.9133,20.9089],[106.8965,20.9024],[106.8957,20.9037],[106.8854,20.9021],[106.8812,20.8929],[106.8766,20.8911],[106.8758,20.8869],[106.8708,20.8792],[106.8709,20.873],[106.8658,20.8691],[106.8656,20.8546],[106.8715,20.8378],[106.8736,20.8338],[106.8749,20.828],[106.882,20.8235],[106.8848,20.8189],[106.8915,20.8151],[106.8954,20.8091],[106.902,20.8054],[106.902,20.7996],[106.8861,20.7934],[106.8794,20.7958],[106.8695,20.7923],[106.8604,20.7903],[106.8227,20.7912],[106.77,20.7955],[106.7643,20.7889],[106.7635,20.7794],[106.7609,20.7745],[106.7699,20.7712],[106.7722,20.7691],[106.7774,20.7507],[106.7835,20.7408],[106.7894,20.725],[106.7923,20.7223],[106.8018,20.7201],[106.7989,20.7138],[106.792,20.7043],[106.7931,20.6975],[106.7982,20.6955],[106.7962,20.6903],[106.7961,20.6844],[106.8019,20.6835],[106.8037,20.6789],[106.7954,20.6824],[106.7923,20.6872],[106.7929,20.6938],[106.7848,20.6963],[106.7859,20.7009],[106.7735,20.7045],[106.7738,20.708],[106.7699,20.7095],[106.767,20.7148],[106.743,20.7044],[106.7291,20.6951],[106.7247,20.6907],[106.7168,20.6863],[106.7077,20.6856],[106.7074,20.6698],[106.7084,20.6631],[106.7013,20.6485],[106.6946,20.6379],[106.6902,20.6326],[106.6566,20.6124],[106.65,20.6086],[106.6444,20.6037],[106.6429,20.5979],[106.6365,20.5966],[106.6294,20.5907],[106.6269,20.5869],[106.6149,20.582],[106.6085,20.5775],[106.5954,20.5631],[106.5851,20.5502],[106.5901,20.5406],[106.5853,20.5372],[106.5865,20.5326],[106.5825,20.526],[106.5811,20.5162],[106.5863,20.5073],[106.597,20.5004],[106.5996,20.4926],[106.6016,20.4759],[106.5977,20.4689],[106.6009,20.4463],[106.596,20.4255],[106.5894,20.4082],[106.5834,20.3876],[106.5817,20.3754],[106.5774,20.3681],[106.5791,20.3628],[106.5794,20.3544],[106.5944,20.3232],[106.605,20.3167],[106.6108,20.312],[106.6153,20.3059],[106.6153,20.3035],[106.6104,20.2853],[106.6052,20.2564],[106.6023,20.2502],[106.5926,20.2403],[106.5849,20.2324],[106.5848,20.2246],[106.5822,20.2167],[106.5616,20.2032],[106.5523,20.2029],[106.5527,20.2094],[106.5486,20.2132],[106.5448,20.2133],[106.5445,20.2215],[106.5368,20.2252],[106.5284,20.2211],[106.5196,20.228],[106.5135,20.2272],[106.5,20.2202],[106.4945,20.2191],[106.4843,20.2208],[106.4798,20.2176],[106.4549,20.2152],[106.4417,20.2129],[106.4378,20.2129],[106.4299,20.2081],[106.4212,20.2064],[106.4131,20.2067],[106.4047,20.2022],[106.3992,20.2012],[106.3922,20.1973],[106.3866,20.1959],[106.3848,20.1918],[106.3656,20.1812],[106.358,20.1789],[106.3572,20.174],[106.3526,20.1683],[106.3338,20.1485],[106.3247,20.1424],[106.3229,20.1378],[106.3159,20.131],[106.3104,20.1239],[106.3002,20.1125],[106.289,20.1032],[106.2781,20.0892],[106.2624,20.0736],[106.2576,20.0665],[106.2492,20.0597],[106.2349,20.0424],[106.2298,20.0375],[106.2227,20.0279],[106.2047,20.009],[106.1975,20.0058],[106.1928,20],[106.0352,20],[104.9117,20],[104.9112,20.0015],[104.9163,20.0034],[104.9167,20.007],[104.92,20.0093],[104.9175,20.0145],[104.9235,20.019],[104.9266,20.0254],[104.9347,20.0358],[104.9472,20.0437],[104.9484,20.0466],[104.9564,20.0479],[104.9622,20.0519],[104.9662,20.0585],[104.9712,20.0605],[104.9736,20.0633],[104.9725,20.0668],[104.9756,20.0778],[104.9812,20.0805],[104.98,20.0837],[104.9919,20.0941],[104.9838,20.0961],[104.9653,20.099],[104.9605,20.1047],[104.9605,20.1116],[104.9532,20.1147],[104.9478,20.1216],[104.9454,20.1212],[104.9345,20.1262],[104.933,20.1291],[104.9264,20.135],[104.9224,20.1411],[104.923,20.1458],[104.9289,20.1478],[104.9296,20.1515],[104.9274,20.1582],[104.9193,20.1547],[104.9127,20.154],[104.9085,20.1505],[104.897,20.1473],[104.8856,20.1463],[104.8788,20.1433],[104.8757,20.1452],[104.8705,20.143],[104.8598,20.1429],[104.8541,20.1482],[104.8417,20.1493],[104.8352,20.1563],[104.8296,20.1562],[104.8226,20.1611],[104.8226,20.1652],[104.8198,20.1707],[104.8144,20.1724],[104.8059,20.1785],[104.7967,20.1835],[104.7944,20.1875],[104.7905,20.1886],[104.7862,20.1928],[104.7779,20.1946],[104.7731,20.1987],[104.7672,20.2004],[104.7645,20.1988],[104.7572,20.2007],[104.7504,20.1988],[104.7403,20.2001],[104.733,20.2027],[104.725,20.2009],[104.7184,20.202],[104.7141,20.2062],[104.71,20.2055],[104.7058,20.2075],[104.7017,20.2124],[104.6864,20.218],[104.6824,20.2163],[104.6733,20.2161],[104.6689,20.2181],[104.6669,20.2279],[104.662,20.2328],[104.6541,20.2329],[104.6445,20.235],[104.6401,20.2336],[104.6335,20.2289],[104.6299,20.2299],[104.6271,20.2336],[104.6199,20.2381],[104.6127,20.245],[104.6118,20.254],[104.6096,20.256],[104.6117,20.2646],[104.611,20.2756],[104.6157,20.282],[104.6175,20.2929],[104.6224,20.2953],[104.6203,20.3011],[104.6155,20.3078],[104.6183,20.3171],[104.6209,20.3207],[104.6187,20.3263],[104.6184,20.3343],[104.6215,20.3403],[104.6199,20.3453],[104.6155,20.3475],[104.6154,20.3547],[104.6184,20.3631],[104.6224,20.3667],[104.6277,20.3671],[104.6301,20.3694],[104.6367,20.371],[104.64,20.3737],[104.6446,20.3738],[104.6499,20.3769],[104.6504,20.3809],[104.6549,20.3804],[104.6597,20.3853],[104.6635,20.3848],[104.6661,20.3896],[104.6703,20.3898],[104.6755,20.3927],[104.6781,20.3967],[104.6831,20.3969],[104.6841,20.4036],[104.6925,20.4013],[104.7036,20.3993],[104.7128,20.3994],[104.7178,20.4029],[104.7196,20.4079],[104.7126,20.4099],[104.7065,20.4152],[104.6968,20.4317],[104.6894,20.4341],[104.686,20.4435],[104.683,20.4442],[104.673,20.4507],[104.6652,20.4536],[104.665,20.462],[104.6718,20.4657],[104.6711,20.4688],[104.6652,20.4712],[104.6587,20.4693],[104.6573,20.475],[104.6524,20.4744],[104.6467,20.4718],[104.6391,20.466],[104.6355,20.4656],[104.6254,20.4616],[104.6209,20.4566],[104.622,20.4523],[104.6134,20.4465],[104.6189,20.4423],[104.6184,20.4369],[104.6133,20.4266],[104.6086,20.4223],[104.5973,20.417],[104.5848,20.4169],[104.5777,20.415],[104.5744,20.4167],[104.5651,20.417],[104.5565,20.4143],[104.5491,20.4096],[104.5428,20.4089],[104.5357,20.4111],[104.5309,20.4141],[104.5261,20.4113],[104.5281,20.407],[104.5252,20.3947],[104.5216,20.391],[104.5142,20.3888],[104.5117,20.3857],[104.5015,20.3835],[104.4962,20.3835],[104.4912,20.3774],[104.4842,20.3747],[104.4815,20.3718],[104.4741,20.369],[104.4582,20.3716],[104.4532,20.3744],[104.4522,20.3782],[104.4466,20.38],[104.4457,20.3773],[104.4384,20.3756],[104.4295,20.3784],[104.4243,20.3787],[104.4206,20.3766],[104.4101,20.3842],[104.4062,20.3928],[104.4072,20.3958],[104.4045,20.4035],[104.4045,20.411],[104.4085,20.4176],[104.4129,20.422],[104.4111,20.4256],[104.4041,20.4312],[104.3983,20.4337],[104.3916,20.4402],[104.3853,20.443],[104.3814,20.4431],[104.38,20.4578],[104.3746,20.4654],[104.3778,20.4718],[104.3819,20.4749],[104.3895,20.4768],[104.391,20.4793],[104.3874,20.4834],[104.3881,20.4882],[104.3947,20.4876],[104.4057,20.4896],[104.4154,20.4894],[104.4211,20.4921],[104.425,20.4968],[104.429,20.498],[104.4347,20.5024],[104.4376,20.5088],[104.4442,20.5067],[104.4493,20.5097],[104.4586,20.5118],[104.4756,20.517],[104.4766,20.5195],[104.4832,20.5242],[104.4842,20.531],[104.4914,20.5358],[104.4929,20.5408],[104.4965,20.5437],[104.5017,20.5448],[104.5052,20.5432],[104.5115,20.5458],[104.5156,20.5492],[104.5234,20.5478],[104.5278,20.5556],[104.5239,20.5617],[104.5261,20.5694],[104.5309,20.5745],[104.5342,20.5757],[104.5365,20.5804],[104.5351,20.5848],[104.5391,20.5895],[104.542,20.5981],[104.5472,20.5983],[104.5498,20.6013],[104.5543,20.6017],[104.558,20.6062],[104.5624,20.6077],[104.5745,20.6065],[104.58,20.6072],[104.5839,20.61],[104.5982,20.6086],[104.6022,20.6057],[104.6081,20.6119],[104.6095,20.6163],[104.6142,20.6214],[104.6273,20.6263],[104.6274,20.6298],[104.6324,20.6352],[104.6329,20.6439],[104.6386,20.6549],[104.6397,20.6635],[104.6359,20.6729],[104.6311,20.6742],[104.6231,20.6733],[104.6112,20.6744],[104.6045,20.6729],[104.5979,20.6759],[104.5921,20.6756],[104.5898,20.6802],[104.5832,20.683],[104.5851,20.6873],[104.5857,20.6951],[104.5805,20.7044],[104.5669,20.7136],[104.5639,20.7181],[104.5614,20.7175],[104.5523,20.7221],[104.5411,20.717],[104.5334,20.7154],[104.5288,20.7124],[104.5285,20.7077],[104.5244,20.7017],[104.5188,20.7036],[104.5114,20.7098],[104.5058,20.7114],[104.506,20.7152],[104.5002,20.7132],[104.4963,20.7151],[104.4919,20.7206],[104.4915,20.7242],[104.4884,20.7284],[104.4875,20.7418],[104.4889,20.746],[104.4842,20.7539],[104.4828,20.7653],[104.4847,20.7669],[104.4738,20.7731],[104.471,20.7737],[104.4676,20.7801],[104.4619,20.7803],[104.4585,20.7782],[104.4504,20.7838],[104.4488,20.7903],[104.4488,20.797],[104.4308,20.7976],[104.4277,20.7951],[104.4194,20.7958],[104.4154,20.8004],[104.4122,20.8014],[104.4066,20.8102],[104.3993,20.8149],[104.3955,20.8214],[104.3839,20.828],[104.3798,20.8293],[104.3778,20.8267],[104.3791,20.821],[104.3736,20.8223],[104.3687,20.8254],[104.3681,20.8287],[104.363,20.8353],[104.3571,20.8396],[104.3536,20.8387],[104.3526,20.8434],[104.3485,20.8441],[104.3474,20.8511],[104.341,20.851],[104.3369,20.8563],[104.3371,20.8604],[104.3302,20.8562],[104.3268,20.8601],[104.3351,20.8713],[104.333,20.8819],[104.3282,20.8894],[104.3194,20.8946],[104.3192,20.8979],[104.313,20.9016],[104.3135,20.9044],[104.3039,20.9079],[104.303,20.9104],[104.2973,20.9095],[104.2933,20.9137],[104.2957,20.9189],[104.292,20.9248],[104.2845,20.9281],[104.2808,20.928],[104.2756,20.9219],[104.2721,20.9228],[104.2636,20.9188],[104.2605,20.9122],[104.264,20.9097],[104.2595,20.9041],[104.2582,20.8995],[104.2525,20.9006],[104.2476,20.9034],[104.2458,20.9076],[104.2397,20.9099],[104.2386,20.914],[104.2428,20.9284],[104.2432,20.9333],[104.24,20.9348],[104.2311,20.9358],[104.2293,20.9399],[104.2195,20.9403],[104.2143,20.9394],[104.2139,20.9435],[104.2078,20.9444],[104.2044,20.9475],[104.1972,20.9464],[104.1936,20.9481],[104.1875,20.9572],[104.1798,20.9556],[104.1688,20.9554],[104.1578,20.9566],[104.147,20.9533],[104.1443,20.9512],[104.1364,20.9487],[104.1313,20.9493],[104.1272,20.9575],[104.1257,20.9659],[104.1206,20.9722],[104.1138,20.9729],[104.1095,20.9769],[104.103,20.9786],[104.0947,20.9703],[104.0926,20.9663],[104.0826,20.9627],[104.0799,20.9604],[104.0763,20.9621],[104.0713,20.9613],[104.0657,20.9555],[104.0614,20.9553],[104.0519,20.9517],[104.0574,20.9427],[104.0541,20.9355],[104.0497,20.9328],[104.048,20.9289],[104.0504,20.9244],[104.0499,20.9159],[104.0432,20.9105],[104.0387,20.9099],[104.032,20.9042],[104.0292,20.9035],[104.021,20.9066],[104.0044,20.9067],[104.0006,20.9052],[103.9948,20.9065],[103.9922,20.911],[103.9772,20.9116],[103.9739,20.9144],[103.9706,20.9076],[103.9645,20.9041],[103.959,20.8983],[103.9549,20.8991],[103.945,20.8956],[103.9397,20.9031],[103.9296,20.905],[103.919,20.9019],[103.9134,20.9038],[103.9033,20.9045],[103.8993,20.906],[103.8965,20.9018],[103.8913,20.8984],[103.8852,20.8976],[103.8808,20.8905],[103.8764,20.889],[103.864,20.8754],[103.859,20.8725],[103.8588,20.8695],[103.8486,20.8621],[103.8452,20.8663],[103.8409,20.866],[103.8339,20.8727],[103.8272,20.8719],[103.8161,20.8653],[103.8126,20.8611],[103.814,20.8552],[103.8053,20.8542],[103.8002,20.8494],[103.8045,20.8459],[103.8061,20.8371],[103.8106,20.8306],[103.8077,20.823],[103.8047,20.8208],[103.7958,20.8192],[103.7937,20.8157],[103.7841,20.8093],[103.7796,20.8034],[103.7823,20.7953],[103.7801,20.7924],[103.7863,20.7878],[103.7868,20.7837],[103.7901,20.7807],[103.7868,20.7709],[103.7836,20.7693],[103.7845,20.7596],[103.7911,20.7502],[103.7835,20.7433],[103.7744,20.739],[103.7707,20.7349],[103.7645,20.7392],[103.7566,20.7347],[103.7567,20.7324],[103.7415,20.7348],[103.7381,20.7332],[103.7327,20.7337],[103.7303,20.7288],[103.7319,20.7248],[103.7288,20.7219],[103.7333,20.7161],[103.7369,20.7094],[103.7334,20.7017],[103.7342,20.6957],[103.7414,20.6899],[103.7456,20.6797],[103.7404,20.6745],[103.7362,20.6732],[103.7367,20.6697],[103.7283,20.6685],[103.7243,20.6657],[103.7149,20.6691],[103.7094,20.6663],[103.6969,20.6636],[103.6952,20.6623],[103.6818,20.6623],[103.674,20.6692],[103.675,20.6724],[103.6712,20.6781],[103.6741,20.6836],[103.671,20.6863],[103.6663,20.7008],[103.6569,20.6964],[103.6483,20.7008],[103.6478,20.7043],[103.6436,20.7101],[103.6396,20.7131],[103.6379,20.7203],[103.6322,20.7204],[103.6246,20.7256],[103.6095,20.7312],[103.6086,20.7359],[103.6042,20.7424],[103.5971,20.7461],[103.5938,20.7449],[103.5832,20.7499],[103.5748,20.7465],[103.5642,20.7502],[103.5583,20.7468],[103.551,20.7454],[103.5453,20.7495],[103.5382,20.7517],[103.5373,20.7546],[103.5291,20.751],[103.5202,20.7502],[103.5075,20.7554],[103.5014,20.766],[103.5018,20.7727],[103.4958,20.778],[103.4911,20.7854],[103.488,20.7862],[103.4826,20.7942],[103.4815,20.7977],[103.4848,20.8098],[103.4791,20.8135],[103.472,20.8217],[103.4639,20.8278],[103.4559,20.8219],[103.451,20.8216],[103.4469,20.8131],[103.4435,20.8109],[103.44,20.802],[103.4403,20.7967],[103.438,20.7943],[103.4332,20.7976],[103.4301,20.796],[103.4217,20.7954],[103.4138,20.7975],[103.4087,20.7939],[103.4063,20.7875],[103.3999,20.784],[103.3926,20.7873],[103.3891,20.7857],[103.3841,20.7869],[103.3803,20.7917],[103.3726,20.7973],[103.3709,20.8007],[103.3665,20.8035],[103.3653,20.8075],[103.3578,20.8068],[103.355,20.8045],[103.3493,20.8038],[103.3423,20.8097],[103.333,20.8122],[103.3284,20.8158],[103.3159,20.8213],[103.304,20.8204],[103.298,20.824],[103.2987,20.829],[103.2941,20.8361],[103.2872,20.8384],[103.2842,20.8335],[103.2798,20.83],[103.2708,20.8271],[103.2674,20.8234],[103.2582,20.8249],[103.2486,20.8325],[103.2375,20.8337],[103.2321,20.8378],[103.231,20.8431],[103.2276,20.8432],[103.2256,20.8513],[103.229,20.8568],[103.229,20.8621],[103.235,20.8704],[103.2352,20.8737],[103.2274,20.8795],[103.2262,20.8831],[103.222,20.8875],[103.2138,20.8905],[103.2172,20.8955],[103.2103,20.902],[103.2001,20.9026],[103.198,20.9059],[103.1932,20.9016],[103.19,20.9035],[103.1821,20.9048],[103.1811,20.9085],[103.1739,20.9095],[103.1699,20.9147],[103.165,20.9165],[103.1649,20.9107],[103.1578,20.9057],[103.1477,20.9045],[103.1395,20.9063],[103.138,20.9081],[103.1314,20.907],[103.1286,20.9094],[103.1244,20.9065],[103.1181,20.8963],[103.1148,20.8969],[103.1096,20.9015],[103.1124,20.9128],[103.1112,20.9167],[103.1062,20.9192],[103.108,20.9253],[103.1047,20.935],[103.0927,20.9355],[103.0843,20.9446],[103.0865,20.9559],[103.0854,20.9712],[103.08,20.9721],[103.078,20.9788],[103.0721,20.9815],[103.0695,20.9889],[103.0707,20.9926],[103.0606,21.0006],[103.0583,21.0058],[103.0589,21.0144],[103.0565,21.0146],[103.0507,21.0265],[103.0452,21.0322],[103.0452,21.0348],[103.0399,21.0376],[103.0414,21.0433],[103.039,21.0486],[103.0348,21.0508],[103.0364,21.0548],[103.0246,21.0592],[103.0141,21.065],[103.0085,21.0643],[103.0057,21.0608],[103.0019,21.0603],[102.9966,21.0631],[102.9884,21.0621],[102.9787,21.0671],[102.9749,21.0657],[102.9692,21.0704],[102.9668,21.0756],[102.964,21.0773],[102.9616,21.0823],[102.9668,21.0881],[102.968,21.0925],[102.9675,21.0985],[102.9615,21.1109],[102.9609,21.1144],[102.9554,21.117],[102.9543,21.1195],[102.9468,21.1238],[102.9436,21.1238],[102.9399,21.129],[102.9412,21.1318],[102.9499,21.1389],[102.9499,21.1416],[102.9449,21.1436],[102.9385,21.1542],[102.9386,21.1581],[102.9275,21.162],[102.9234,21.1559],[102.9194,21.161],[102.9091,21.1633],[102.9043,21.1663],[102.9065,21.1759],[102.9096,21.176],[102.9106,21.1813],[102.9055,21.1893],[102.9098,21.1964],[102.9108,21.206],[102.9075,21.2171],[102.9083,21.2247],[102.9131,21.2266],[102.9131,21.2298],[102.9041,21.2318],[102.8945,21.2433],[102.8793,21.2515],[102.8718,21.2525],[102.864,21.2576],[102.8601,21.2569],[102.8572,21.2528],[102.8482,21.2532],[102.845,21.2495],[102.8393,21.247],[102.8295,21.2474],[102.8236,21.2455],[102.82,21.2499],[102.8141,21.2509],[102.8118,21.2534],[102.8149,21.2576],[102.8076,21.2636],[102.8098,21.2669],[102.815,21.2668],[102.8201,21.2726],[102.829,21.2784],[102.8327,21.278],[102.8334,21.2824],[102.8384,21.2825],[102.8406,21.2911],[102.8438,21.2928],[102.8488,21.29],[102.8518,21.2996],[102.8585,21.298],[102.8625,21.3008],[102.8724,21.3004],[102.8776,21.3025],[102.8842,21.2994],[102.889,21.3024],[102.8969,21.3032],[102.9001,21.3174],[102.8917,21.3309],[102.8913,21.3391],[102.8936,21.341],[102.8926,21.3453],[102.8943,21.3526],[102.8968,21.356],[102.894,21.3605],[102.899,21.3655],[102.8953,21.369],[102.8988,21.3764],[102.896,21.3826],[102.8966,21.3865],[102.9009,21.3879],[102.9028,21.3909],[102.9086,21.3944],[102.9092,21.3985],[102.9167,21.4064],[102.9189,21.4184],[102.9219,21.4216],[102.9237,21.4311],[102.9258,21.4326],[102.9313,21.4448],[102.9405,21.4527],[102.9396,21.4583],[102.9261,21.4567],[102.9229,21.4551],[102.92,21.4502],[102.9137,21.4446],[102.9139,21.4374],[102.9054,21.4344],[102.9009,21.4299],[102.8995,21.435],[102.8926,21.4322],[102.8906,21.4283],[102.8846,21.4253],[102.8755,21.4237],[102.8716,21.4246],[102.8703,21.4281],[102.8726,21.4318],[102.8775,21.4353],[102.8792,21.4387],[102.8781,21.4448],[102.8858,21.4496],[102.8867,21.4574],[102.8836,21.4617],[102.8917,21.4695],[102.8862,21.4762],[102.8908,21.4776],[102.9033,21.4763],[102.9084,21.4801],[102.9078,21.4865],[102.9105,21.4865],[102.9146,21.4946],[102.9135,21.5031],[102.9184,21.5048],[102.9203,21.5096],[102.9273,21.5161],[102.932,21.5163],[102.9312,21.5238],[102.9392,21.5258],[102.9427,21.5325],[102.9464,21.5362],[102.9557,21.5411],[102.9612,21.5468],[102.9587,21.554],[102.9668,21.5612],[102.9688,21.5667],[102.9794,21.5723],[102.984,21.5786],[102.9851,21.5841],[102.9912,21.5853],[102.9928,21.5903],[102.9908,21.6027],[102.9847,21.6056],[102.987,21.6195],[102.9897,21.6225],[102.9849,21.6264],[102.9866,21.6289],[102.9827,21.6345],[102.9861,21.6426],[102.9812,21.648],[102.9844,21.658],[102.9868,21.6609],[102.9857,21.6665],[102.9902,21.6825],[102.9854,21.6887],[102.9805,21.6896],[102.9789,21.6966],[102.9818,21.7004],[102.9873,21.7025],[102.9897,21.7103],[102.9888,21.7201],[102.9851,21.7223],[102.9855,21.7265],[102.9807,21.7295],[102.9774,21.7347],[102.9732,21.7364],[102.9743,21.7448],[102.9695,21.7464],[102.9647,21.7433],[102.962,21.7383],[102.9562,21.7332],[102.9549,21.7289],[102.9482,21.7285],[102.9454,21.7265],[102.9294,21.7239],[102.9244,21.7252],[102.9182,21.7215],[102.914,21.7212],[102.9088,21.718],[102.9026,21.7188],[102.8986,21.7147],[102.8912,21.7126],[102.8867,21.7128],[102.8825,21.7086],[102.8815,21.7051],[102.872,21.7083],[102.8682,21.7147],[102.8623,21.7165],[102.8572,21.7209],[102.859,21.7324],[102.8552,21.7395],[102.8572,21.7499],[102.8611,21.7541],[102.8618,21.7665],[102.8557,21.7679],[102.8592,21.7746],[102.8579,21.7768],[102.8596,21.7828],[102.8559,21.7853],[102.8603,21.7977],[102.8565,21.8028],[102.8575,21.8068],[102.855,21.8107],[102.8579,21.8162],[102.857,21.8234],[102.8543,21.8247],[102.8529,21.84],[102.8503,21.8432],[102.8433,21.8465],[102.839,21.8448],[102.8323,21.8458],[102.8177,21.8401],[102.8187,21.835],[102.8109,21.825],[102.8111,21.8191],[102.8161,21.813],[102.8206,21.7977],[102.8158,21.7909],[102.8174,21.7828],[102.8212,21.7772],[102.8204,21.7725],[102.8209,21.7605],[102.8248,21.7514],[102.8251,21.7414],[102.8265,21.7356],[102.821,21.7309],[102.8158,21.7316],[102.8143,21.7274],[102.8098,21.7246],[102.8115,21.7195],[102.8092,21.7171],[102.8044,21.7169],[102.7998,21.7083],[102.7953,21.7062],[102.7888,21.7069],[102.7823,21.702],[102.7711,21.6888],[102.7683,21.6832],[102.7623,21.6746],[102.7548,21.6734],[102.749,21.6639],[102.7364,21.659],[102.7321,21.6628],[102.7239,21.6644],[102.7152,21.6626],[102.7092,21.6647],[102.6997,21.6616],[102.6937,21.6643],[102.6891,21.6625],[102.6886,21.6582],[102.6818,21.6548],[102.6754,21.6554],[102.6741,21.665],[102.6688,21.6727],[102.6689,21.6756],[102.6633,21.6805],[102.6679,21.6862],[102.6653,21.6888],[102.6649,21.6935],[102.6612,21.7005],[102.6604,21.7105],[102.6563,21.7189],[102.6534,21.7196],[102.6515,21.7279],[102.6462,21.732],[102.6487,21.735],[102.6497,21.7542],[102.6489,21.7582],[102.6508,21.7677],[102.6571,21.7743],[102.6603,21.7849],[102.6633,21.7907],[102.6593,21.8],[102.6483,21.8081],[102.6503,21.8154],[102.6508,21.8264],[102.6455,21.8379],[102.6426,21.8484],[102.6466,21.8556],[102.6457,21.8589],[102.6395,21.8597],[102.631,21.8632],[102.6286,21.8692],[102.6172,21.8722],[102.6123,21.8748],[102.6117,21.8807],[102.6145,21.8939],[102.6166,21.8979],[102.6203,21.8996],[102.618,21.9086],[102.6151,21.9148],[102.6102,21.9205],[102.605,21.9235],[102.5863,21.9275],[102.5801,21.9334],[102.5658,21.9372],[102.5639,21.9412],[102.5544,21.9462],[102.5477,21.9518],[102.5442,21.9522],[102.5376,21.9581],[102.5219,21.9659],[102.5152,21.9654],[102.5125,21.9691],[102.5054,21.9731],[102.5051,21.9758],[102.5004,21.9795],[102.4935,21.9886],[102.493,21.9924],[102.4886,21.9967],[102.4888,22.0067],[102.4941,22.0126],[102.5004,22.0153],[102.5071,22.0148],[102.52,22.0239],[102.5188,22.0324],[102.5093,22.0373],[102.5043,22.0345],[102.4993,22.0378],[102.4972,22.0357],[102.4838,22.0428],[102.4777,22.0529],[102.4724,22.0578],[102.4697,22.062],[102.4606,22.0658],[102.459,22.0696],[102.4471,22.0744],[102.4418,22.0743],[102.4415,22.0785],[102.4458,22.0803],[102.4464,22.0844],[102.4391,22.0905],[102.4403,22.1032],[102.4322,22.1165],[102.4225,22.116],[102.4116,22.1241],[102.408,22.1282],[102.404,22.1262],[102.3901,22.1272],[102.3845,22.1306],[102.3857,22.1422],[102.3835,22.1501],[102.3688,22.1593],[102.3659,22.1637],[102.3581,22.1666],[102.3478,22.163],[102.3384,22.1669],[102.3357,22.1658],[102.336,22.1834],[102.3353,22.1877],[102.3313,22.1956],[102.3244,22.1994],[102.3224,22.2037],[102.3102,22.2082],[102.3085,22.2042],[102.3032,22.2014],[102.298,22.2053],[102.2871,22.2063],[102.2801,22.2057],[102.2776,22.2124],[102.279,22.2198],[102.2722,22.2249],[102.2739,22.2353],[102.2702,22.2373],[102.2617,22.2338],[102.2485,22.2381],[102.2423,22.2385],[102.2397,22.2432],[102.2388,22.2487],[102.2415,22.2551],[102.2365,22.2638],[102.232,22.2654],[102.2324,22.2698],[102.2304,22.2749],[102.2336,22.278],[102.2345,22.2825],[102.2321,22.2848],[102.2258,22.2851],[102.2247,22.2872],[102.2121,22.2873],[102.2106,22.2913],[102.2032,22.2926],[102.2009,22.2971],[102.1934,22.2992],[102.1904,22.3027],[102.1779,22.3051],[102.1774,22.314],[102.1818,22.3232],[102.1892,22.3263],[102.1913,22.3317],[102.1962,22.3363],[102.193,22.3399],[102.1868,22.3411],[102.1793,22.339],[102.1685,22.3505],[102.1642,22.361],[102.1716,22.3711],[102.1693,22.3756],[102.1639,22.3778],[102.1592,22.3848],[102.1527,22.3868],[102.1495,22.3905],[102.1491,22.3954],[102.145,22.3993],[102.1456,22.406],[102.1487,22.4078],[102.1544,22.417],[102.1538,22.4244],[102.1581,22.4258],[102.1594,22.4301],[102.1641,22.4289],[102.1743,22.4321],[102.1789,22.4319],[102.1852,22.4361],[102.1948,22.4335],[102.1995,22.4303],[102.2069,22.4283],[102.2132,22.4315],[102.2167,22.4284],[102.223,22.4258],[102.224,22.4283],[102.2307,22.429],[102.2376,22.4281],[102.2516,22.4197],[102.2536,22.4171],[102.2602,22.4142],[102.2631,22.4147],[102.2671,22.4259],[102.2663,22.431],[102.2605,22.4398],[102.2576,22.4421],[102.256,22.4494],[102.253,22.4501],[102.2507,22.4549],[102.2461,22.4551],[102.2479,22.4596],[102.2457,22.4654],[102.2517,22.4636],[102.2632,22.467],[102.2639,22.4792],[102.2668,22.4789],[102.2718,22.4839],[102.2685,22.4868],[102.2776,22.4955],[102.2805,22.5023],[102.2882,22.5041],[102.2939,22.5118],[102.2933,22.5169],[102.296,22.5215],[102.3008,22.5256],[102.2998,22.5296],[102.3041,22.535],[102.308,22.5362],[102.313,22.541],[102.3218,22.5473],[102.3215,22.5568],[102.3376,22.5597],[102.3543,22.5666],[102.3547,22.5722],[102.3486,22.5767],[102.3453,22.5831],[102.3465,22.5891],[102.3512,22.5894],[102.3556,22.5932],[102.3592,22.5917],[102.3712,22.5932],[102.3778,22.6012],[102.386,22.6093],[102.3879,22.6163],[102.3905,22.6199],[102.3981,22.6264],[102.4038,22.6337],[102.4183,22.6362],[102.4166,22.6422],[102.4124,22.6433],[102.4069,22.6423],[102.4,22.6473],[102.3964,22.6578],[102.3893,22.6638],[102.3867,22.6684],[102.3824,22.6811],[102.3842,22.6846],[102.3939,22.6911],[102.4015,22.6864],[102.4074,22.6843],[102.4126,22.6858],[102.4143,22.6897],[102.4191,22.6925],[102.4237,22.6919],[102.43,22.6987],[102.4356,22.7017],[102.4366,22.7087],[102.4417,22.7156],[102.4405,22.7186],[102.4439,22.7258],[102.4564,22.7326],[102.4554,22.7373],[102.4513,22.7417],[102.4528,22.7466],[102.4513,22.7504],[102.4523,22.7563],[102.4568,22.7589],[102.4593,22.7664],[102.471,22.7709],[102.4793,22.7709],[102.4816,22.7788],[102.4892,22.7784],[102.4958,22.7806],[102.5041,22.7771],[102.5081,22.7785],[102.5155,22.771],[102.5249,22.7628],[102.5286,22.7622],[102.5341,22.7586],[102.5373,22.7531],[102.5476,22.7439],[102.5481,22.7396],[102.553,22.7313],[102.556,22.7314],[102.5649,22.7231],[102.5647,22.7158],[102.5692,22.7108],[102.5681,22.7045],[102.5751,22.7064],[102.5801,22.7056],[102.5847,22.7073],[102.5861,22.7113],[102.5854,22.72],[102.5889,22.725],[102.5937,22.7262],[102.5946,22.7293],[102.6004,22.7336],[102.6057,22.7337],[102.6107,22.7305],[102.616,22.724],[102.6203,22.7222],[102.6241,22.7167],[102.6312,22.7103],[102.6376,22.7067],[102.6432,22.7009],[102.6506,22.698],[102.6565,22.6904],[102.6598,22.6933],[102.6732,22.6987],[102.6844,22.7007],[102.6885,22.7045],[102.6987,22.6976],[102.707,22.6948],[102.7104,22.6813],[102.7183,22.6784],[102.7264,22.677],[102.7267,22.6724],[102.7356,22.6664],[102.7391,22.6684],[102.7516,22.6675],[102.7547,22.6626],[102.7531,22.66],[102.7592,22.6517],[102.7641,22.6474],[102.7735,22.6481],[102.7813,22.6465],[102.7873,22.6436],[102.7832,22.637],[102.7873,22.6264],[102.7926,22.6264],[102.7981,22.6233],[102.8082,22.6249],[102.8164,22.6218],[102.8205,22.6266],[102.8247,22.6274],[102.8332,22.622],[102.8371,22.6216],[102.8421,22.6181],[102.8414,22.6142],[102.8483,22.6102],[102.8562,22.6108],[102.8613,22.6047],[102.8626,22.6007],[102.8748,22.5952],[102.8779,22.5879],[102.875,22.5832],[102.872,22.5818],[102.8722,22.5751],[102.882,22.5682],[102.8776,22.5588],[102.885,22.5528],[102.8898,22.5513],[102.8964,22.5441],[102.8887,22.5376],[102.9,22.5274],[102.9053,22.5265],[102.9097,22.5188],[102.9088,22.5135],[102.911,22.5098],[102.9196,22.5083],[102.923,22.5038],[102.922,22.5014],[102.9234,22.4904],[102.9291,22.484],[102.9359,22.486],[102.9416,22.4855],[102.9505,22.4824],[102.9572,22.4853],[102.9594,22.4823],[102.9657,22.4793],[102.9825,22.4807],[102.9876,22.4798],[102.9878,22.4751],[102.9934,22.4718],[102.9905,22.4653],[102.9968,22.4603],[103.0006,22.4613],[103.0113,22.4605],[103.0133,22.4531],[103.0197,22.4515],[103.0213,22.4485],[103.0308,22.4425],[103.0353,22.4463],[103.045,22.445],[103.0539,22.4467],[103.0557,22.4514],[103.0592,22.4514],[103.0648,22.4475],[103.0734,22.4481],[103.08,22.4511],[103.0804,22.4593],[103.078,22.4658],[103.0778,22.4716],[103.072,22.4767],[103.0713,22.4791],[103.0751,22.4846],[103.0724,22.4874],[103.0803,22.5035],[103.0799,22.5064],[103.0845,22.5113],[103.093,22.5104],[103.0972,22.5147],[103.1044,22.5154],[103.114,22.514],[103.1183,22.5172],[103.1233,22.5231],[103.1349,22.5326],[103.1383,22.5399],[103.1483,22.5444],[103.1561,22.5395],[103.1599,22.5446],[103.1678,22.5478],[103.1768,22.5554],[103.1824,22.5579],[103.1832,22.5602],[103.1733,22.5692],[103.1687,22.5776],[103.1618,22.5836],[103.1578,22.5942],[103.1594,22.5983],[103.1647,22.6043],[103.164,22.607],[103.1683,22.6186],[103.1761,22.6271],[103.1805,22.6294],[103.1843,22.6361],[103.1831,22.6407],[103.1849,22.6444],[103.1934,22.6502],[103.1984,22.6498],[103.2082,22.6461],[103.2217,22.6466],[103.2277,22.6484],[103.2302,22.6517],[103.2313,22.6574],[103.2386,22.6607],[103.2401,22.6634],[103.2497,22.669],[103.2513,22.6721],[103.2603,22.6715],[103.2646,22.6745],[103.2706,22.6745],[103.2769,22.6785],[103.2836,22.6846],[103.2812,22.6976],[103.2846,22.7051],[103.288,22.7084],[103.2864,22.7137],[103.289,22.7205],[103.285,22.7301],[103.2854,22.7371],[103.289,22.74],[103.292,22.7451],[103.3009,22.752],[103.3024,22.7585],[103.3063,22.7597],[103.3099,22.7633],[103.309,22.7675],[103.3162,22.7793],[103.3197,22.7801],[103.3208,22.7865],[103.319,22.7962],[103.3207,22.8041],[103.3195,22.8078],[103.3265,22.811],[103.3343,22.806],[103.3459,22.8054],[103.3529,22.8025],[103.3668,22.8011],[103.3723,22.7986],[103.3804,22.7907],[103.3858,22.7883],[103.3907,22.7813],[103.3975,22.7816],[103.4046,22.7783],[103.4092,22.7785],[103.414,22.7743],[103.4167,22.7687],[103.4163,22.7641],[103.4203,22.7612],[103.4251,22.7613],[103.4319,22.7589],[103.4364,22.7531],[103.4399,22.7532],[103.4422,22.7463],[103.4406,22.7405],[103.4279,22.7337],[103.4305,22.7283],[103.4303,22.7227],[103.4269,22.7173],[103.4336,22.7075],[103.433,22.7008],[103.4398,22.6937],[103.4513,22.6889],[103.4512,22.6861],[103.4605,22.6782],[103.4565,22.6715],[103.4557,22.6615],[103.4574,22.6571],[103.4637,22.6543],[103.4651,22.6471],[103.4706,22.6447],[103.4771,22.6399],[103.4794,22.6302],[103.4851,22.6288],[103.4883,22.6193],[103.5009,22.615],[103.5087,22.6098],[103.5052,22.6052],[103.5115,22.6007],[103.5184,22.5979],[103.5304,22.5948],[103.5394,22.6054],[103.5407,22.6086],[103.5454,22.6124],[103.5473,22.6226],[103.5514,22.6271],[103.5524,22.6368],[103.5594,22.6397],[103.5634,22.6396],[103.567,22.6427],[103.5717,22.643],[103.5717,22.6471],[103.5751,22.6525],[103.5752,22.6567],[103.5798,22.6648],[103.5788,22.6704],[103.5742,22.6756],[103.5694,22.6778],[103.5687,22.6817],[103.565,22.6882],[103.5658,22.6936],[103.5631,22.6985],[103.5643,22.7057],[103.5754,22.7176],[103.5776,22.7245],[103.5831,22.732],[103.5919,22.7364],[103.5973,22.743],[103.5971,22.7471],[103.5998,22.7501],[103.6045,22.7497],[103.6066,22.7571],[103.61,22.7568],[103.6085,22.7635],[103.6132,22.767],[103.6148,22.7718],[103.6205,22.7745],[103.6173,22.7826],[103.6192,22.7861],[103.6236,22.7856],[103.6276,22.7888],[103.6338,22.7874],[103.6392,22.7975],[103.648,22.7941],[103.65,22.7913],[103.6586,22.7896],[103.6631,22.7859],[103.6655,22.7784],[103.6659,22.7716],[103.6685,22.7684],[103.6786,22.7651],[103.6826,22.7612],[103.6841,22.7537],[103.6877,22.7506],[103.6963,22.7462],[103.7002,22.7462],[103.7054,22.7428],[103.7156,22.733],[103.7266,22.7241],[103.7312,22.7185],[103.7386,22.7121],[103.7375,22.7032],[103.7403,22.7],[103.7447,22.699],[103.7494,22.6935],[103.7508,22.6882],[103.7572,22.6884],[103.7656,22.6911],[103.7685,22.6902],[103.7717,22.6829],[103.7794,22.6764],[103.7819,22.6704],[103.7862,22.6662],[103.7934,22.6623],[103.8016,22.6525],[103.8038,22.6479],[103.8121,22.6412],[103.8174,22.6318],[103.8214,22.6216],[103.8241,22.6174],[103.8408,22.6056],[103.8442,22.5984],[103.8508,22.5924],[103.8592,22.5886],[103.8653,22.5824],[103.8746,22.5672],[103.8809,22.564],[103.8837,22.5646],[103.8853,22.5694],[103.8893,22.57],[103.8938,22.5666],[103.8998,22.559],[103.915,22.544],[103.9136,22.5373],[103.9186,22.5335],[103.9234,22.5391],[103.9277,22.5386],[103.9322,22.5279],[103.9369,22.5262],[103.9458,22.5249],[103.953,22.5123],[103.9614,22.5065],[103.9686,22.5115],[103.9719,22.5071],[103.9799,22.5078],[103.9832,22.5128],[103.9874,22.5142],[103.9901,22.5194],[103.9996,22.5197],[104.0058,22.5169],[104.0126,22.5237],[104.0097,22.5293],[104.0097,22.5333],[104.005,22.5384],[104.0088,22.5443],[104.0134,22.5447],[104.0139,22.5542],[104.0109,22.5564],[104.0118,22.5626],[104.0163,22.5654],[104.0126,22.571],[104.0079,22.573],[104.0059,22.577],[104.0099,22.5794],[104.0141,22.5786],[104.0151,22.5869],[104.0134,22.5884],[104.0158,22.5946],[104.0198,22.5956],[104.0209,22.6052],[104.0255,22.6133],[104.0251,22.6224],[104.0295,22.6258],[104.0301,22.6326],[104.0284,22.6386],[104.0313,22.6425],[104.0303,22.6522],[104.0327,22.6543],[104.0324,22.6636],[104.0347,22.6699],[104.0396,22.677],[104.0399,22.6812],[104.0353,22.682],[104.0287,22.6872],[104.0284,22.6936],[104.0333,22.698],[104.0359,22.7038],[104.0365,22.7103],[104.0396,22.7168],[104.0393,22.7237],[104.0454,22.7302],[104.0463,22.7344],[104.0527,22.7392],[104.0588,22.7482],[104.0606,22.7486],[104.0658,22.7573],[104.0701,22.7573],[104.075,22.7609],[104.0791,22.7663],[104.0836,22.767],[104.0898,22.7723],[104.0906,22.7771],[104.0955,22.7899],[104.1006,22.7941],[104.1048,22.8014],[104.1099,22.8031],[104.1149,22.8117],[104.1196,22.8115],[104.1267,22.8137],[104.1305,22.8119],[104.1331,22.807],[104.1406,22.8061],[104.1468,22.8104],[104.1519,22.8099],[104.1551,22.8144],[104.1604,22.8149],[104.1671,22.8225],[104.17,22.8202],[104.1754,22.8202],[104.1779,22.8233],[104.1833,22.8261],[104.1904,22.8207],[104.1976,22.8263],[104.2091,22.8282],[104.216,22.8318],[104.22,22.8287],[104.2292,22.8336],[104.2437,22.8439],[104.252,22.8397],[104.2557,22.8449],[104.2648,22.8398],[104.268,22.8393],[104.2683,22.833],[104.2711,22.8293],[104.2705,22.8257],[104.2668,22.8208],[104.2678,22.8134],[104.2627,22.8016],[104.2612,22.7938],[104.2583,22.7888],[104.2565,22.7791],[104.2549,22.7781],[104.2593,22.7712],[104.2584,22.7663],[104.2611,22.7624],[104.2662,22.7595],[104.2706,22.7534],[104.2714,22.7491],[104.2697,22.7416],[104.2803,22.7413],[104.2897,22.7373],[104.2947,22.7332],[104.3019,22.7302],[104.3083,22.7298],[104.3131,22.7318],[104.3206,22.7321],[104.3353,22.7232],[104.3395,22.7224],[104.3416,22.7168],[104.3419,22.7114],[104.344,22.7067],[104.3473,22.7044],[104.3524,22.6924],[104.3646,22.6923],[104.3664,22.6895],[104.3714,22.6882],[104.3778,22.6912],[104.379,22.6953],[104.3841,22.702],[104.3888,22.7044],[104.3992,22.702],[104.4034,22.7138],[104.4063,22.7168],[104.4079,22.7241],[104.413,22.7273],[104.4226,22.7374],[104.4378,22.7445],[104.4417,22.7449],[104.4542,22.7497],[104.4579,22.7529],[104.4715,22.7579],[104.4738,22.7612],[104.4817,22.7673],[104.4904,22.7753],[104.4931,22.779],[104.4968,22.7785],[104.5023,22.7876],[104.5137,22.7898],[104.5167,22.7961],[104.5193,22.798],[104.52,22.8046],[104.5235,22.8057],[104.5238,22.8108],[104.5306,22.8207],[104.5334,22.8211],[104.5376,22.8273],[104.5413,22.8261],[104.55,22.8339],[104.5457,22.8376],[104.5543,22.8424],[104.5587,22.8416],[104.5701,22.8442],[104.5711,22.8483],[104.5775,22.8537],[104.5922,22.8508],[104.5982,22.8467],[104.5992,22.839],[104.6047,22.8313],[104.6037,22.8266],[104.5978,22.8238],[104.5975,22.817],[104.6107,22.8183],[104.6139,22.8166],[104.6216,22.8262],[104.6223,22.8309],[104.6181,22.8388],[104.6197,22.8428],[104.6245,22.8463],[104.6271,22.8403],[104.6306,22.8358],[104.6384,22.8339],[104.6407,22.8362],[104.6513,22.8353],[104.656,22.8338],[104.6596,22.8296],[104.6647,22.8273],[104.673,22.8174],[104.6769,22.8196],[104.6803,22.818],[104.6854,22.8212],[104.7029,22.8266],[104.7118,22.8225],[104.717,22.8225],[104.724,22.8201],[104.7323,22.8229],[104.7358,22.8304],[104.7326,22.8366],[104.7316,22.8434],[104.726,22.8479],[104.7324,22.8568],[104.7383,22.8589],[104.7529,22.8569],[104.7566,22.8589],[104.7642,22.8728],[104.7654,22.8858],[104.7706,22.8902],[104.7708,22.8954],[104.7777,22.9052],[104.7916,22.9053],[104.7966,22.9112],[104.8008,22.9111],[104.8074,22.9151],[104.8102,22.9196],[104.8153,22.9204],[104.8198,22.9233],[104.8306,22.9246],[104.8385,22.9221],[104.8451,22.9328],[104.85,22.937],[104.8621,22.9428],[104.8641,22.9448],[104.8636,22.9504],[104.8654,22.9554],[104.8657,22.9624],[104.8605,22.9686],[104.8625,22.9749],[104.8609,22.9784],[104.8529,22.9776],[104.8483,22.9799],[104.8431,22.9855],[104.8407,22.9841],[104.8362,22.9864],[104.8388,22.9908],[104.836,22.9976],[104.8303,22.9977],[104.8311,23.0036],[104.8299,23.008],[104.8302,23.0162],[104.8286,23.0189],[104.828,23.0264],[104.824,23.0326],[104.8212,23.0334],[104.8199,23.0383],[104.8213,23.0502],[104.8204,23.0551],[104.8135,23.0582],[104.8154,23.066],[104.8119,23.0705],[104.8171,23.0747],[104.8156,23.0794],[104.8089,23.0802],[104.8066,23.0841],[104.8042,23.1008],[104.8021,23.1074],[104.8012,23.1151],[104.8033,23.1173],[104.8218,23.1174],[104.8235,23.1088],[104.8266,23.108],[104.8308,23.1154],[104.8394,23.1149],[104.8486,23.1218],[104.8544,23.123],[104.8569,23.1288],[104.8609,23.1248],[104.8757,23.1256],[104.8786,23.1297],[104.8774,23.1354],[104.882,23.1443],[104.8796,23.1498],[104.8833,23.1563],[104.8815,23.1653],[104.8874,23.1696],[104.8888,23.1739],[104.8964,23.1794],[104.9015,23.1788],[104.9085,23.1808],[104.9172,23.176],[104.9175,23.1708],[104.9225,23.17],[104.9224,23.1666],[104.9266,23.165],[104.9241,23.1603],[104.9279,23.1566],[104.9326,23.1575],[104.9473,23.1508],[104.95,23.1545],[104.9515,23.1632],[104.9477,23.1664],[104.95,23.1714],[104.956,23.1806],[104.958,23.1884],[104.9568,23.1924],[104.9624,23.199],[104.9692,23.2022],[104.9771,23.204],[104.9799,23.206],[104.9869,23.2006],[104.9896,23.2023],[104.9974,23.203],[104.9989,23.2136],[105.0047,23.2171],[105.0094,23.2161],[105.0244,23.2189],[105.0352,23.2322],[105.0417,23.2339],[105.0459,23.2396],[105.0469,23.2435],[105.0509,23.2481],[105.0581,23.2485],[105.0594,23.2547],[105.0699,23.2578],[105.0708,23.2607],[105.0794,23.2662],[105.0831,23.2669],[105.0879,23.2631],[105.0915,23.264],[105.0983,23.2579],[105.1016,23.2572],[105.1019,23.2524],[105.1075,23.2456],[105.1112,23.2463],[105.1246,23.2531],[105.1253,23.2568],[105.1351,23.2561],[105.1401,23.2612],[105.1443,23.2612],[105.1497,23.2653],[105.1559,23.2668],[105.1579,23.2713],[105.1607,23.2718],[105.1652,23.2782],[105.1674,23.2787],[105.1706,23.2892],[105.1785,23.288],[105.1847,23.2774],[105.1896,23.2804],[105.1954,23.2815],[105.1984,23.2787],[105.1982,23.275],[105.2037,23.2715],[105.2081,23.2721],[105.2137,23.2673],[105.2211,23.2709],[105.2245,23.2674],[105.2266,23.2607],[105.2324,23.2608],[105.2374,23.2649],[105.2363,23.2675],[105.2387,23.2724],[105.2357,23.2876],[105.2476,23.2916],[105.2507,23.2994],[105.2504,23.3096],[105.2567,23.3124],[105.2587,23.3197],[105.2553,23.3218],[105.2553,23.3261],[105.2499,23.332],[105.2566,23.3423],[105.2611,23.3433],[105.2674,23.3425],[105.2733,23.3399],[105.2834,23.342],[105.2877,23.3526],[105.2883,23.3593],[105.2928,23.3606],[105.2991,23.3699],[105.3082,23.3818],[105.3115,23.3821],[105.3221,23.3924],[105.3256,23.3918],[105.3308,23.3832],[105.3383,23.3767],[105.348,23.3696],[105.3507,23.365],[105.3515,23.3592],[105.3505,23.3535],[105.3514,23.3455],[105.3555,23.3392],[105.3595,23.3356],[105.3684,23.3249],[105.3711,23.319],[105.3832,23.3108],[105.3861,23.3144],[105.402,23.2957],[105.406,23.2934],[105.412,23.2873],[105.4206,23.285],[105.4295,23.2917],[105.4264,23.2965],[105.4298,23.3031],[105.4391,23.3009],[105.4466,23.2922],[105.4464,23.2863],[105.4505,23.2786],[105.459,23.2718],[105.4649,23.2648],[105.473,23.2512],[105.4837,23.2427],[105.487,23.2343],[105.493,23.2323],[105.4913,23.2262],[105.4915,23.2209],[105.4949,23.2173],[105.4979,23.2099],[105.4982,23.203],[105.506,23.2002],[105.5122,23.1962],[105.5171,23.1966],[105.5239,23.1897],[105.5268,23.1886],[105.5424,23.1941],[105.5483,23.1887],[105.5532,23.1874],[105.5557,23.1829],[105.5571,23.1751],[105.5608,23.1684],[105.5741,23.16],[105.5721,23.1487],[105.5637,23.1437],[105.5664,23.1361],[105.5654,23.1332],[105.5596,23.1283],[105.5625,23.1255],[105.5646,23.1192]],[[106.9542,20.8736],[106.9552,20.8674],[106.9517,20.8627],[106.9561,20.8547],[106.964,20.8536],[106.9716,20.8563],[106.9812,20.8527],[106.9811,20.8494],[106.9854,20.8482],[106.9852,20.8537],[106.9878,20.8589],[106.9947,20.8617],[107.0027,20.8576],[107.0038,20.8536],[107.0008,20.8488],[107.0078,20.8459],[107.0125,20.8474],[107.0081,20.8517],[107.0084,20.8598],[107.0247,20.8625],[107.0314,20.8597],[107.0369,20.8608],[107.0406,20.8525],[107.0406,20.8496],[107.0461,20.8469],[107.0465,20.842],[107.0439,20.8356],[107.0435,20.8255],[107.0471,20.8185],[107.0507,20.8219],[107.0473,20.8245],[107.0543,20.8282],[107.0571,20.8333],[107.0608,20.8301],[107.0583,20.8256],[107.0588,20.8225],[107.0628,20.8182],[107.0669,20.8207],[107.0715,20.8151],[107.0761,20.824],[107.0821,20.8214],[107.0862,20.817],[107.0902,20.8168],[107.0923,20.8069],[107.0963,20.81],[107.0994,20.8059],[107.0991,20.8013],[107.103,20.8005],[107.1058,20.8041],[107.1091,20.798],[107.1059,20.7932],[107.0975,20.7922],[107.0969,20.7957],[107.0924,20.7974],[107.09,20.8057],[107.0838,20.8024],[107.0855,20.7974],[107.0951,20.7917],[107.0948,20.7859],[107.0989,20.7819],[107.0937,20.7808],[107.0875,20.7771],[107.0844,20.778],[107.0849,20.7877],[107.0756,20.7865],[107.0682,20.7974],[107.0632,20.8069],[107.0634,20.8147],[107.0574,20.8148],[107.0548,20.8109],[107.0615,20.8056],[107.0632,20.7971],[107.0702,20.7919],[107.0725,20.783],[107.0646,20.7785],[107.063,20.7804],[107.0528,20.7745],[107.0465,20.7743],[107.0455,20.7719],[107.0565,20.77],[107.0535,20.7665],[107.0479,20.7655],[107.0458,20.7622],[107.0419,20.7661],[107.042,20.7715],[107.0357,20.77],[107.0416,20.7649],[107.0438,20.7588],[107.055,20.7526],[107.061,20.7525],[107.0716,20.7454],[107.0726,20.7418],[107.0706,20.7367],[107.0656,20.736],[107.0671,20.7418],[107.0653,20.7441],[107.0576,20.748],[107.0553,20.7442],[107.0606,20.7373],[107.0567,20.7273],[107.0597,20.7223],[107.0485,20.7161],[107.0512,20.722],[107.0472,20.7256],[107.0401,20.7245],[107.0406,20.7296],[107.0309,20.7316],[107.0345,20.7251],[107.032,20.7214],[107.0285,20.7268],[107.0252,20.7274],[107.0233,20.7234],[107.0171,20.7272],[107.0145,20.7327],[107.0274,20.7355],[107.0329,20.7326],[107.0367,20.7351],[107.0278,20.7407],[107.0199,20.738],[107.017,20.7469],[107.012,20.7444],[107.0071,20.7451],[107.0051,20.7498],[106.999,20.7503],[106.9959,20.7465],[106.9908,20.7446],[106.993,20.7383],[106.9884,20.7395],[106.986,20.7462],[106.9815,20.7496],[106.9754,20.7517],[106.9732,20.7571],[106.9756,20.7623],[106.9751,20.7662],[106.9701,20.7685],[106.9717,20.7729],[106.9631,20.7767],[106.9613,20.7834],[106.9533,20.7902],[106.9521,20.7933],[106.9453,20.7945],[106.9286,20.7955],[106.9184,20.7977],[106.9173,20.802],[106.9248,20.7992],[106.9286,20.7995],[106.931,20.8019],[106.9308,20.807],[106.934,20.8095],[106.9351,20.8126],[106.9348,20.8166],[106.9423,20.8181],[106.9466,20.8152],[106.9484,20.8199],[106.9457,20.8271],[106.95,20.8421],[106.9477,20.849],[106.9502,20.8496],[106.9507,20.8566],[106.9486,20.8613],[106.9431,20.8631],[106.9473,20.8678],[106.95,20.8669],[106.9502,20.8771],[106.9542,20.8736]],[[107.7441,20.1579],[107.7393,20.1495],[107.7346,20.1435],[107.7307,20.1421],[107.7318,20.1342],[107.7308,20.1282],[107.7274,20.1246],[107.7257,20.1199],[107.7207,20.118],[107.7134,20.1234],[107.7068,20.1242],[107.6982,20.1208],[107.6917,20.1234],[107.6822,20.1218],[107.6794,20.124],[107.6856,20.1284],[107.6883,20.1337],[107.6951,20.1396],[107.7031,20.1418],[107.7119,20.1481],[107.7204,20.1518],[107.7271,20.1574],[107.7289,20.1615],[107.734,20.1644],[107.7462,20.1659],[107.7441,20.1579]],[[107.3413,20.8484],[107.3463,20.8401],[107.3472,20.8306],[107.351,20.8324],[107.3522,20.8368],[107.3564,20.8355],[107.3569,20.8311],[107.368,20.8247],[107.3738,20.8255],[107.3803,20.8245],[107.3797,20.8138],[107.3807,20.8023],[107.3848,20.7985],[107.3843,20.7949],[107.3805,20.7934],[107.3756,20.7997],[107.3709,20.8039],[107.3651,20.8057],[107.3498,20.8066],[107.3476,20.8033],[107.3439,20.8042],[107.3405,20.8274],[107.3425,20.8317],[107.3387,20.8369],[107.3346,20.8484],[107.3366,20.8526],[107.3413,20.8484]],[[107.3614,20.8872],[107.3642,20.8898],[107.3694,20.8895],[107.3733,20.8916],[107.3794,20.8885],[107.3856,20.89],[107.3868,20.8858],[107.3929,20.8813],[107.392,20.8776],[107.387,20.8767],[107.3744,20.8775],[107.3731,20.8758],[107.3827,20.87],[107.3864,20.8704],[107.3921,20.8654],[107.3887,20.8638],[107.3838,20.8667],[107.3798,20.8627],[107.3733,20.8589],[107.3641,20.8602],[107.3585,20.8621],[107.3551,20.8593],[107.351,20.8611],[107.3451,20.8698],[107.3453,20.8746],[107.3386,20.887],[107.3373,20.8814],[107.3371,20.8725],[107.3299,20.876],[107.3283,20.8798],[107.3306,20.8836],[107.3284,20.889],[107.3289,20.8935],[107.3317,20.8953],[107.3367,20.894],[107.3396,20.8897],[107.3456,20.8874],[107.3498,20.8881],[107.3534,20.891],[107.3614,20.8872]],[[107.3557,20.9002],[107.3501,20.9028],[107.3513,20.9053],[107.3718,20.9101],[107.3865,20.9168],[107.3931,20.917],[107.4054,20.92],[107.413,20.9254],[107.4198,20.941],[107.421,20.9485],[107.4274,20.9469],[107.4278,20.9498],[107.4353,20.9583],[107.4508,20.969],[107.4549,20.9663],[107.4508,20.9579],[107.4504,20.9519],[107.4449,20.9424],[107.435,20.9357],[107.4281,20.9277],[107.4224,20.9251],[107.4198,20.9196],[107.414,20.919],[107.4081,20.9162],[107.4057,20.9135],[107.3977,20.9128],[107.3964,20.9107],[107.3854,20.9058],[107.3745,20.903],[107.3588,20.9012],[107.3557,20.9002]],[[107.5338,20.9095],[107.5237,20.8971],[107.5198,20.89],[107.5184,20.8834],[107.5074,20.8767],[107.5011,20.8696],[107.4952,20.861],[107.4918,20.8472],[107.4875,20.8365],[107.4855,20.8342],[107.4823,20.8231],[107.4774,20.816],[107.4712,20.8142],[107.4684,20.8168],[107.4718,20.8197],[107.4712,20.8263],[107.4766,20.8326],[107.4835,20.8523],[107.4827,20.8575],[107.4904,20.8641],[107.4924,20.8723],[107.4901,20.8759],[107.4838,20.8791],[107.477,20.8804],[107.4744,20.885],[107.4766,20.8922],[107.4796,20.8945],[107.4792,20.8991],[107.4864,20.9028],[107.4921,20.9018],[107.4955,20.9071],[107.5027,20.9084],[107.5049,20.9112],[107.5105,20.9123],[107.5209,20.9166],[107.5268,20.9241],[107.5312,20.9359],[107.531,20.9409],[107.5371,20.9526],[107.5432,20.9618],[107.5479,20.9627],[107.5508,20.9665],[107.5595,20.9685],[107.5596,20.9634],[107.5563,20.961],[107.5522,20.9522],[107.5517,20.9475],[107.5572,20.9371],[107.5605,20.9339],[107.5512,20.9253],[107.5443,20.922],[107.5338,20.9095]],[[107.5161,20.9233],[107.5141,20.9212],[107.507,20.9208],[107.506,20.9184],[107.4958,20.9164],[107.4928,20.9142],[107.4868,20.9135],[107.4835,20.9156],[107.4819,20.9101],[107.4773,20.911],[107.4611,20.9049],[107.4549,20.9101],[107.4608,20.9116],[107.4566,20.9172],[107.4453,20.9126],[107.4335,20.9089],[107.4252,20.9043],[107.419,20.9034],[107.4083,20.8973],[107.4069,20.8937],[107.3987,20.8912],[107.3955,20.8923],[107.3941,20.8993],[107.3967,20.9032],[107.4034,20.9031],[107.4152,20.9092],[107.4185,20.9148],[107.4221,20.9165],[107.4339,20.9177],[107.4371,20.9219],[107.4459,20.9301],[107.453,20.9321],[107.4576,20.9366],[107.4759,20.9477],[107.482,20.9547],[107.4822,20.9577],[107.4881,20.9649],[107.4889,20.9739],[107.4834,20.9738],[107.4796,20.9818],[107.4864,20.9811],[107.4853,20.9877],[107.49,20.9889],[107.491,20.9948],[107.4977,21.0004],[107.5031,21.0122],[107.5096,21.0185],[107.5108,21.012],[107.5142,21.0112],[107.5146,21.017],[107.5194,21.0246],[107.5232,21.0247],[107.5253,21.031],[107.5279,21.0312],[107.5339,21.04],[107.5381,21.0419],[107.5364,21.0342],[107.5376,21.0293],[107.5336,21.0227],[107.5359,21.0096],[107.5408,21.0159],[107.5424,21.021],[107.5462,21.0271],[107.5503,21.0301],[107.5514,21.0334],[107.5496,21.0396],[107.5505,21.0451],[107.5575,21.0457],[107.5608,21.0376],[107.5575,21.0342],[107.5527,21.0255],[107.5457,21.0198],[107.5449,21.0124],[107.5469,21.0069],[107.5436,21.0023],[107.548,20.9953],[107.5523,20.9951],[107.547,20.9888],[107.5444,20.9814],[107.5394,20.978],[107.5351,20.962],[107.5321,20.9572],[107.5266,20.9426],[107.5223,20.9392],[107.5231,20.9301],[107.5161,20.9233]],[[107.6237,21.109],[107.616,21.09],[107.6155,21.0846],[107.6097,21.0711],[107.6099,21.0665],[107.6031,21.0537],[107.5991,21.0491],[107.5997,21.0408],[107.5965,21.0302],[107.5914,21.0283],[107.5882,21.0244],[107.5848,21.0039],[107.5787,20.9874],[107.577,20.9791],[107.5697,20.9713],[107.5648,20.9695],[107.5623,20.975],[107.5649,20.9854],[107.5728,20.9878],[107.5731,20.9904],[107.5667,20.9912],[107.5646,20.9998],[107.5715,21.0115],[107.5701,21.0142],[107.573,21.0226],[107.5777,21.0302],[107.585,21.0356],[107.5831,21.0404],[107.5841,21.0479],[107.5861,21.0498],[107.587,21.0563],[107.5854,21.0649],[107.5895,21.0756],[107.5929,21.0783],[107.5976,21.0855],[107.6023,21.0891],[107.6079,21.0962],[107.6119,21.103],[107.6208,21.1154],[107.6254,21.1196],[107.6298,21.1202],[107.6237,21.109]],[[107.5811,21.1121],[107.5801,21.109],[107.5751,21.1063],[107.5785,21.1027],[107.574,21.0945],[107.571,21.0849],[107.5673,21.0822],[107.5606,21.0872],[107.5539,21.0875],[107.5551,21.0841],[107.5605,21.0845],[107.5624,21.0801],[107.5604,21.0762],[107.5551,21.0734],[107.5465,21.0708],[107.5453,21.0678],[107.5389,21.0649],[107.5372,21.0706],[107.5295,21.0788],[107.526,21.088],[107.5322,21.0874],[107.5338,21.0894],[107.5396,21.0892],[107.5354,21.0953],[107.5445,21.1001],[107.5452,21.1062],[107.5494,21.1142],[107.5535,21.1178],[107.5555,21.1147],[107.5628,21.1115],[107.5715,21.1178],[107.5807,21.1172],[107.5811,21.1121]],[[107.7783,20.9733],[107.7807,20.9703],[107.778,20.9675],[107.7708,20.9649],[107.7597,20.9541],[107.7566,20.9563],[107.75,20.9547],[107.7481,20.9473],[107.7434,20.9428],[107.7388,20.9442],[107.7459,20.9518],[107.7481,20.9571],[107.761,20.9678],[107.7615,20.973],[107.7584,20.9782],[107.7537,20.9831],[107.7444,20.9886],[107.7349,20.991],[107.7372,20.9971],[107.7309,20.9998],[107.7309,21.0052],[107.7335,21.0071],[107.7369,21.0147],[107.7439,21.0221],[107.7482,21.0239],[107.7505,21.0194],[107.757,21.0145],[107.7629,21.0119],[107.7756,20.9972],[107.7809,20.9923],[107.7859,20.9907],[107.7867,20.988],[107.7843,20.983],[107.7784,20.9785],[107.7783,20.9733]],[[107.8612,21.0372],[107.8622,21.0258],[107.8568,21.0245],[107.8443,21.0149],[107.8426,21.0113],[107.8385,21.0109],[107.8347,21.0049],[107.8361,21.0008],[107.8305,20.9998],[107.828,20.9956],[107.823,20.9941],[107.8204,20.9871],[107.8235,20.9835],[107.8198,20.9815],[107.8125,20.9824],[107.8111,20.9783],[107.8075,20.9763],[107.8041,20.9796],[107.8083,20.9845],[107.805,20.9948],[107.8094,21.0006],[107.8073,21.0033],[107.8139,21.0158],[107.8199,21.0205],[107.8232,21.0288],[107.8296,21.0303],[107.8351,21.0412],[107.8389,21.0445],[107.8462,21.04],[107.8547,21.0454],[107.8598,21.0435],[107.8612,21.0372]],[[107.8192,21.3541],[107.8222,21.3535],[107.8117,21.345],[107.8066,21.3448],[107.8022,21.3397],[107.8012,21.3362],[107.7966,21.3321],[107.7822,21.3268],[107.7783,21.3227],[107.7695,21.3224],[107.7653,21.3186],[107.7587,21.3171],[107.7557,21.3136],[107.7493,21.3111],[107.7452,21.306],[107.7394,21.3062],[107.7324,21.3026],[107.7334,21.3091],[107.7304,21.312],[107.7228,21.3084],[107.7168,21.3033],[107.7117,21.3057],[107.7282,21.3147],[107.7465,21.3262],[107.7534,21.3279],[107.7572,21.331],[107.7683,21.3332],[107.7742,21.3377],[107.7946,21.3507],[107.8025,21.3525],[107.8073,21.3561],[107.819,21.3572],[107.8192,21.3541]],[[107.9284,21.3612],[107.9231,21.3624],[107.9145,21.3597],[107.91,21.357],[107.9038,21.3601],[107.8981,21.3584],[107.8845,21.3579],[107.8784,21.3562],[107.8609,21.3482],[107.8471,21.3391],[107.8421,21.3444],[107.8456,21.3519],[107.8483,21.3473],[107.8631,21.3542],[107.867,21.3531],[107.8772,21.358],[107.8716,21.3596],[107.8642,21.3576],[107.8614,21.3593],[107.8573,21.3574],[107.8548,21.3605],[107.857,21.3633],[107.8571,21.371],[107.8524,21.3728],[107.8464,21.3702],[107.8423,21.3658],[107.8362,21.3638],[107.8312,21.3661],[107.8391,21.37],[107.8401,21.3725],[107.8543,21.3759],[107.8555,21.3782],[107.866,21.381],[107.8874,21.3836],[107.8932,21.3818],[107.9054,21.3812],[107.9079,21.383],[107.9174,21.3842],[107.9423,21.3924],[107.9511,21.3931],[107.9616,21.3966],[107.9727,21.3978],[107.9911,21.3977],[107.9992,21.397],[107.9995,21.3902],[107.9965,21.3889],[107.9865,21.3887],[107.98,21.3847],[107.9761,21.3803],[107.9719,21.3799],[107.9647,21.3759],[107.9574,21.3689],[107.9515,21.3589],[107.9433,21.3555],[107.9373,21.3562],[107.9296,21.3589],[107.9284,21.3612]]]}}]}